STARLINK-37171          
1 68665U 26077D   26112.61150921  .00068728  00000+0  45795-3 0  9993
2 68665  97.2840 343.6585 0000954  90.5331 269.6043 15.75190649  1824
